0 CBERS 1 DEB
1 30792U 99057PB  16010.79778591  .00000100  00000-0  49994-4 0  9992
2 30792  98.4387 314.3969 0008074 106.1840 283.7031 14.35327468464782
0 ERS 2 DEB
1 31137U 95021D   16010.48130907  .00000693  00000-0  23568-3 0  9997
2 31137  98.2767 347.2463 0004544  40.5098  83.1778 14.39546479623689
0 FENGYUN 1C DEB
1 31366U 99025BRW 16010.08769045  .00002551  00000-0  10428-2 0  9991
2 31366  98.8878  51.5432 0001857 224.9853 162.1005 14.28189300451420
0 FENGYUN 1C DEB
1 31520U 99025BXK 16010.91789505  .00002442  00000-0  10097-2 0  9999
2 31520  98.9196  39.2341 0004488 173.8598 305.4261 14.27634447449798
0 FENGYUN 1C DEB
1 31687U 99025CCV 15348.26546459  .00001421  00000-0  68426-3 0  9999
2 31687  98.9718 358.4954 0004903 306.5991  53.4734 14.20426403446406
0 CBERS 1 DEB
1 32079U 99057QT  16009.10786032  .00000382  00000-0  14011-3 0  9997
2 32079  98.4210 316.3152 0007370 103.3160 322.7653 14.38162990449557
0 FENGYUN 1C DEB
1 32342U 99025CYK 16011.03551403  .00000038  00000-0  44925-4 0  9998
2 32342  98.9749  29.4268 0007755 179.1056 236.6583 14.12387265428248
0 RADARSAT 2
1 32382U 07061A   16011.22230113  .00000041  00000-0  32970-4 0  9995
2 32382  98.5766  20.4409 0001036  94.9954  35.7019 14.29984759421550
0 FENGYUN 3A
1 32958U 08026A   16011.17672732  .00000051  00000-0  43939-4 0  9995
2 32958  98.4751  58.1742 0009911   3.1864 356.9388 14.19597827395138
0 THEOS
1 33396U 08049A   16011.20677852  .00000169  00000-0  10000-3 0  9991
2 33396  98.7451  80.5187 0001084 100.3912 350.8721 14.20019076377258
0 PSLV DEB
1 35351U 01049QK  16009.84740823 +.00001012 +00000-0 +32553-3 0  9998
2 35351 098.8459 232.0600 0003708 283.5974 076.4801 14.41618152133142
0 ERS 2 DEB
1 35391U 95021E   16009.48711852 +.00000638 +00000-0 +23445-3 0  9998
2 35391 098.2194 014.5748 0006902 036.8062 116.8511 14.35803629449413
0 ERS 2 DEB
1 35392U 95021F   16009.68547300  .00000602  00000-0  21057-3 0  9994
2 35392  98.3073  68.9515 0004370 139.0702 343.6610 14.38591245419698
0 ERS 2 DEB
1 35393U 95021G   16011.00588238  .00000700  00000-0  23334-3 0  9998
2 35393  98.1534  26.9459 0004643 330.7762  58.9826 14.40424889652268
0 METEOR-M
1 35865U 09049A   16011.13916137 -.00000029  00000-0  56509-5 0  9991
2 35865  98.4760  48.7514 0001768 206.7400 222.7672 14.22055283327768
0 STERKH 2
1 35866U 09049B   16011.16915183  .00000038  00000-0  35625-4 0  9999
2 35866  98.4711  50.6745 0002735 204.4467 196.4017 14.22828715327911
0 TATIANA 2
1 35868U 09049D   16011.18095661  .00000063  00000-0  46750-4 0  9992
2 35868  98.4719  50.0197 0003664 204.2513 155.8492 14.22702021327870
0 UGATUSAT
1 35869U 09049E   16011.12020661  .00000008  00000-0  22519-4 0  9991
2 35869  98.4671  48.2598 0003708 222.7070 137.3836 14.22324926327819
0 BLITS
1 35871U 09049G   16010.08653570 -.00000006  00000-0  16117-4 0  9995
2 35871  98.4651  44.8800 0002628 218.6326 141.4664 14.21748007326932
0 WORLDVIEW 2
1 35946U 09055A   16011.22315835  .00000086  00000-0  42988-4 0  9993
2 35946  98.3963  86.4694 0001635 117.5278 242.6088 14.37703330328363
0 DMSP 5D-3 F18 DEB
1 35953U 09057C   16011.57427441  .00000722  00000-0  38032-3 0  9999
2 35953  98.7017  52.3101 0003112 321.5127 192.2673 14.17091904321731
0 DMSP 5D-3 F18 DEB
1 35954U 09057D   16011.38139159  .00000614  00000-0  32787-3 0  9996
2 35954  98.7146  53.6764 0003030 311.8170 115.5125 14.16869062321673
0 SMOS
1 36036U 09059A   16010.64008515  .00000176  00000-0  70072-4 0  9992
2 36036  98.4421 199.7887 0001126  86.3872 273.7445 14.39745190325275
0 DMSP 5D-3 F18 DEB
1 36099U 09057E   16011.18631475  .00000484  00000-0  24580-3 0  9990
2 36099  98.8009  68.3166 0008972 267.9080  92.1069 14.20591038316933
0 DMSP 5D-3 F18 DEB
1 36100U 09057F   16011.06743599  .00000471  00000-0  25000-3 0  9995
2 36100  98.7602  60.0213 0008927 309.2025  50.8357 14.18279353318646
0 FENGYUN 1C DEB
1 36259U 99025DWL 16011.54501822  .00001574  00000-0  71905-3 0  9998
2 36259  98.9153  36.2569 0006439 122.8262  30.8698 14.22995185366205
0 RESOURCESAT 2
1 37387U 11015A   16011.15928944  .00000046  00000-0  41155-4 0  9997
2 37387  98.7273  87.5743 0003430  60.5214 299.6312 14.21621309245369
0 DMSP 5D-2 F11 DEB
1 37585U 91082CR  16009.88847659 +.00004577 +00000-0 +14428-2 0  9993
2 37585 098.7646 025.7006 0007726 211.0673 149.0058 14.40811047134883
0 CZ-4 DEB
1 37620U 90081DG  16007.91003650 +.00000790 +00000-0 +35636-3 0  9996
2 37620 098.5940 047.5286 0003518 354.8619 129.5769 14.24950101099138
0 CZ-4 DEB
1 37625U 90081DM  16011.34046376  .00001147  00000-0  42337-3 0  9998
2 37625  98.4775  50.0010 0001358 342.3646  17.7492 14.34364595685773
0 FENGYUN 1C DEB
1 37692U 99025ELH 15353.94155185  .00003580  00000-0  14669-2 0  9991
2 37692  98.9205  34.7207 0009267 176.2954 306.3289 14.27772378316316
0 NOAA 12 DEB
1 37831U 91032D   16010.19365839  .00001565  00000-0  52047-3 0  9997
2 37831  98.5779  56.7212 0006688  44.3396 356.3782 14.39090149223606
0 NOAA 12 DEB
1 37832U 91032E   16010.60588900  .00001480  00000-0  51827-3 0  9991
2 37832  98.6083  56.2665 0009966  85.8567  67.4367 14.36576068223486
0 NPP
1 37849U 11061A   16010.53255102  .00000040  00000-0  39389-4 0  9991
2 37849  98.7070 311.2193 0000801 134.4864 313.3179 14.19564015217792
0 ZY 1
1 38038U 11079A   16011.48095473  .00000125  00000-0  58304-4 0  9991
2 38038  98.4091  84.5493 0000733 105.7445 254.3823 14.35416925212515
0 NOAA 12 DEB
1 38547U 91032G   16011.34603189  .00000102  00000-0  58043-4 0  9992
2 38547  98.5984  46.4911 0005637  52.8759   4.0902 14.28736607598117
0 METOP-B
1 38771U 12049A   16010.79854662  .00000050  00000-0  42825-4 0  9997
2 38771  98.6703  72.3948 0000688  52.8002  91.7062 14.21503001171914
0 CZ-4 DEB
1 39055U 90081DP  16010.31102119  .00000419  00000-0  23231-3 0  9994
2 39055  98.6914  40.8071 0009836 192.9211 228.4184 14.16463077182045
0 SARAL
1 39086U 13009A   16010.85638900  .00000032  00000-0  28133-4 0  9992
2 39086  98.5389 200.5506 0001943  87.4262 272.7144 14.32245350150208
0 BLITS DEB
1 39119U 09049J   16010.06659798  .00000024  00000-0  29894-4 0  9995
2 39119  98.4662  44.8292 0003676 209.2867 150.8105 14.21749863153324
0 PROBA V
1 39159U 13021A   16011.05446670 -.00000021  00000-0  99814-5 0  9995
2 39159  98.6471  92.0286 0005213  89.5297 270.6487 14.22908313139204
0 FENGYUN 3C
1 39260U 13052A   16011.50582939  .00000030  00000-0  35038-4 0  9997
2 39260  98.7103  85.5306 0001527  75.0716 285.0629 14.19596775119229
0 METEOR M2
1 40069U 14037A   16011.14348923 -.00000050  00000-0 -29895-5 0  9992
2 40069  98.7309  68.5642 0004708 288.8414  71.2255 14.20623318 78290
0 CBERS-4
1 40336U 14079A   16011.21590018  .00000040  00000-0  28989-4 0  9996
2 40336  98.5078  88.7835 0001145 109.4732 250.6582 14.35445790 57384
0 DMSP 5D-2 F13 DEB
1 40397U 95015J   16010.80776863  .00000789  00000-0  41154-3 0  9998
2 40397  98.7606  14.3684 0008501 204.3939 155.6834 14.17378324 47149
0 DMSP 5D-2 F13 DEB
1 40398U 95015K   16010.51499944  .00000069  00000-0  57101-4 0  9990
2 40398  98.7624  13.5023 0005949 217.4026 142.6734 14.15877806 48191
0 DMSP 5D-2 F13 DEB
1 40399U 95015L   16011.45879497  .00001107  00000-0  57274-3 0  9994
2 40399  98.7632  14.9272 0008716 188.9959 171.1061 14.16976871 48355
0 DMSP 5D-2 F13 DEB
1 40404U 95015R   16010.69804589  .00000187  00000-0  11754-3 0  9996
2 40404  98.7646  13.6812 0005195 223.3582 136.7184 14.15764131 48218
0 DMSP 5D-2 F13 DEB
1 40406U 95015T   16010.94605559  .00005717  00000-0  26253-2 0  9995
2 40406  98.7493  15.3546 0007882 279.5813  80.4474 14.21591592 48266
0 DMSP 5D-2 F13 DEB
1 40407U 95015U   16010.84461962  .00000096  00000-0  71109-4 0  9990
2 40407  98.7626  13.7185 0005470 225.4397 134.6331 14.15695777 48137
0 DMSP 5D-2 F13 DEB
1 40409U 95015W   16010.45754766  .00000873  00000-0  46089-3 0  9997
2 40409  98.7605  13.5094 0003159 181.5281 178.5884 14.16476742 48106
0 DMSP 5D-2 F13 DEB
1 40415U 95015AC  16010.94768528  .00001112  00000-0  58072-3 0  9991
2 40415  98.7608  14.0126 0008546 132.2516 227.9385 14.16477022 47293
0 DMSP 5D-2 F13 DEB
1 40416U 95015AD  16010.95042635  .00000663  00000-0  35793-3 0  9992
2 40416  98.7607  13.8529 0004854 222.3322 137.7477 14.16062028 47297
0 DMSP 5D-2 F13 DEB
1 40439U 95015AR  16010.99052279  .00018052  00000-0  67387-2 0  9990
2 40439  98.7468  18.5191 0003468 229.6556 130.4324 14.31910290 48554
0 DMSP 5D-2 F13 DEB
1 40479U 95015BX  16010.44291019  .00000438  00000-0  24542-3 0  9997
2 40479  98.7751  13.8311 0004479 130.2584 229.8982 14.15755605 45476
0 DMSP 5D-2 F13 DEB
1 40497U 95015CL  16010.79405244  .00001448  00000-0  73643-3 0  9990
2 40497  98.7623  14.3033 0006172 201.5618 158.5298 14.17403625 44395
0 DMSP 5D-2 F13 DEB
1 40513U 95015CZ  16009.50671013 +.00000431 +00000-0 +23988-3 0  9993
2 40513 098.7617 012.5303 0006387 232.7061 127.3532 14.16127163041338
0 DMSP 5D-2 F13 DEB
1 40522U 95015DJ  16010.23470329  .00002978  00000-0  14578-2 0  9994
2 40522  98.7595  14.0229 0005373 213.2742 146.8096 14.18630095 44206
0 DMSP 5D-2 F13 DEB
1 40606U 95015FD  16010.80340874  .00002973  00000-0  14396-2 0  9994
2 40606  98.7610  14.9565 0007765 206.3894 153.6887 14.19193265 40818
0 DMSP 5D-2 F13 DEB
1 40609U 95015FG  16009.85455453  .00001474  00000-0  75191-3 0  9996
2 40609  98.7641  13.3660 0004800 202.3297 157.7669 14.17236770 42142
0 DMSP 5D-2 F13 DEB
1 40612U 95015FK  16006.23565068 +.00001388 +00000-0 +70978-3 0  9995
2 40612 098.7614 009.7073 0007092 236.6418 123.4078 14.17200707036692
0 DMSP 5D-2 F13 DEB
1 40672U 95015FL  16010.95507916  .00002569  00000-0  12644-2 0  9990
2 40672  98.7599  14.7146 0004850 196.1921 163.9100 14.18454871 40835
0 DMSP 5D-2 F13 DEB
1 40675U 95015FP  16009.44869686  .00001532  00000-0  78169-3 0  9994
2 40675  98.7622  12.8201 0004961 222.8302 137.2487 14.17153856 38409
0 DMSP 5D-2 F13 DEB
1 40676U 95015FQ  16006.95296761 +.00001301 +00000-0 +66658-3 0  9990
2 40676 098.7618 010.3854 0006037 239.7898 120.2679 14.17192512033711
